GOES 18                 
1 51850U 22021A   26073.71714742  .00000096  00000+0  00000+0 0  9990
2 51850   0.0350  37.8704 0000832  25.8264 229.7934  1.00272889  5646
ZHONGXING-6D            
1 52255U 22038A   26072.17849552  .00000000  00000+0  00000+0 0  9990
2 52255   0.0313 195.5655 0002052 117.1283  47.2889  1.00265840 14465
NILESAT 301             
1 52817U 22061A   26073.92366324  .00000000  00000+0  00000+0 0  9995
2 52817   0.0228  29.5496 0005777 328.5375 139.9739  1.00269289 13799
CMS-02 (GSAT 24)        
1 52903U 22067A   26073.94151665 -.00000165  00000+0  00000+0 0  9992
2 52903   0.0185 216.3743 0002142  87.8806 290.2338  1.00270611 13668
MEASAT 3D               
1 52904U 22067B   26073.87183635 -.00000242  00000+0  00000+0 0  9993
2 52904   0.0483 329.3253 0003052  10.8022 237.7294  1.00271561 13705
SES-22                  
1 52933U 22071A   26073.75487662  .00000104  00000+0  00000+0 0  9990
2 52933   0.0161 100.7027 0000990 255.3416 309.0651  1.00273658  6577
WFOV (USA 332)          
1 52940U 22073A   26073.91470630 -.00000361  00000+0  00000+0 0  9991
2 52940   3.4673  79.7377 0001293 224.9253 316.3959  1.00269246 13423
TIANLIAN 2-03           
1 53100U 22078A   26073.92712992  .00000071  00000+0  00000+0 0  9993
2 53100   0.4318  73.6113 0003282 257.8920 185.3459  1.00271121 13606
SBIRS GEO-6 (USA 336)   
1 53355U 22092A   26073.88128307 -.00000293  00000+0  00000+0 0  9994
2 53355   3.4207 315.9667 0002039  38.7502 274.0197  1.00271493 13286
EUTELSAT KONNECT VHTS   
1 53765U 22110A   26072.28543735  .00000017  00000+0  00000+0 0  9992
2 53765   0.0582 103.6406 0002797 226.3283 306.3955  1.00270242  5873
ZHONGXING-1E            
1 53813U 22112A   26071.80185729 -.00000150  00000+0  00000+0 0  9999
2 53813   0.0554 305.0129 0002568 354.3662 241.1166  1.00274038 12881
SES-20                  
1 53960U 22123A   26072.90628869 -.00000101  00000+0  00000+0 0  9999
2 53960   0.0192 104.9887 0001720 326.8603 322.8278  1.00270457 12575
SES-21                  
1 53961U 22123B   26072.23807931  .00000069  00000+0  00000+0 0  9997
2 53961   0.0279  68.0789 0001072 275.2273 142.2575  1.00270335  6250
GALAXY 33 (G-33)        
1 54026U 22128A   26072.39905773  .00000079  00000+0  00000+0 0  9996
2 54026   0.0138 105.0382 0001794 258.0759 178.5705  1.00271687 12780
GALAXY 34 (G-34)        
1 54027U 22128B   26073.68554297  .00000000  00000+0  00000+0 0  9995
2 54027   0.0237 146.3173 0001337 208.4743 295.3742  1.00269803 12968
ANGOSAT 2               
1 54033U 22131A   26071.79024390  .00000136  00000+0  00000+0 0  9992
2 54033   0.0191 162.9381 0000617 294.1226  20.8366  1.00271033 12519
EUTELSAT HOTBIRD 13F    
1 54048U 22134A   26072.90322635  .00000086  00000+0  00000+0 0  9992
2 54048   0.0591 293.6376 0002062  73.4907 142.5494  1.00271959 12426
LDPE-2                  
1 54219U 22144A   26073.87535995 -.00000359  00000+0  00000+0 0  9999
2 54219   5.4121  64.2157 0000171 260.5668 276.7426  1.00552468 10896
EUTELSAT HOTBIRD 13G    
1 54225U 22146A   26073.35713060  .00000086  00000+0  00000+0 0  9998
2 54225   0.0479 233.5588 0001951 300.9113 139.0539  1.00271144  6519
ZHONGXING-19            
1 54230U 22148A   26073.88604976 -.00000082  00000+0  00000+0 0  9996
2 54230   0.0382 268.2121 0002353  84.9049 301.5453  1.00271740 12431
GALAXY 31 (G-31)        
1 54243U 22153A   26073.68718965  .00000012  00000+0  00000+0 0  9990
2 54243   0.0174 130.4213 0001402 239.5123 288.7466  1.00271891  6183
GALAXY 32 (G-32)        
1 54244U 22153B   26073.05128264 -.00000175  00000+0  00000+0 0  9990
2 54244   0.0167 115.0372 0002962 247.5224  96.5681  1.00271848 12198
EUTELSAT 10B            
1 54259U 22157A   26073.90739228  .00000067  00000+0  00000+0 0  9991
2 54259   0.0569 101.9587 0002140   5.6183  41.5834  1.00270049 12087
GALAXY 35 (G-35)        
1 54741U 22170A   26073.90658985 -.00000163  00000+0  00000+0 0  9990
2 54741   0.0161 131.5570 0001951 224.9471  49.2635  1.00272120 11947
GALAXY 36 (G-36)        
1 54742U 22170B   26073.90745652 -.00000186  00000+0  00000+0 0  9994
2 54742   0.0125 177.3104 0002287 230.5457   2.3380  1.00271974 11829
METEOSAT-12 (MTG-I1)    
1 54743U 22170C   26073.92496325 -.00000008  00000+0  00000+0 0  9990
2 54743   0.7121  23.0200 0001759 290.9384 191.2094  1.00271376 12039
SHIJIAN-23 (SJ-23)      
1 55131U 23002A   26073.81085941 -.00000261  00000+0  00000+0 0  9994
2 55131   3.4734  79.5130 0005716 264.9677 257.3754  1.00483612 11564
APSTAR-6E               
1 55239U 23005A   26071.66960336 -.00000318  00000+0  00000+0 0  9990
2 55239   0.0323 232.8508 0000908 102.4149 210.0395  1.00268338 17728
USA 342                 
1 55263U 23008A   26072.14694340  .00000000  00000+0  00000+0 0  9990
2 55263   0.0142 169.8190 0000514 217.1614 220.5363  1.00270806 11553
LDPE-3A                 
1 55264U 23008B   26073.81732279 -.00000163  00000+0  00000+0 0  9991
2 55264   2.1003  82.8715 0000977  35.8999 164.1472  0.99225824 10879
ELEKTRO-L 4             
1 55506U 23016A   26073.06261427 -.00000059  00000+0  00000+0 0  9992
2 55506   0.0811 302.4960 0001673 348.0723  69.3956  1.00272708 11389
AMAZONAS NEXUS          
1 55508U 23017A   26073.09696675 -.00000283  00000+0  00000+0 0  9994
2 55508   0.0440  33.2943 0004953 340.1740 132.1484  1.00270142  6092
ZHONGXING-26            
1 55686U 23023A   26072.88011523 -.00000354  00000+0  00000+0 0  9996
2 55686   0.0613  69.8631 0003831 337.2004 206.3891  1.00269153 11276
LUCH-5X (OLYMP-K 2)     
1 55841U 23031A   26073.78999039  .00000032  00000+0  00000+0 0  9997
2 55841   0.0268  90.9514 0001656 120.0527 307.7537  1.00275467 10997
GAOFEN-13 02            
1 55912U 23036A   26073.62541693 -.00000218  00000+0  00000+0 0  9990
2 55912   1.0291 348.9685 0005000 336.5456 220.1120  1.00273057 11147
SES-18                  
1 55970U 23038A   26073.90459650 -.00000102  00000+0  00000+0 0  9990
2 55970   0.0384 266.0761 0002002  53.3466  75.6360  1.00271917 11155
SES-19                  
1 55971U 23038B   26073.68441631  .00000087  00000+0  00000+0 0  9997
2 55971   0.0526 281.1627 0001582  76.1955 286.4214  1.00271301 11136
INTELSAT 40E (IS-40E)   
1 56174U 23052A   26071.38378028 -.00000174  00000+0  00000+0 0  9991
2 56174   0.0089 156.5234 0000813 240.8747 179.7718  1.00272240 10854
VIASAT-3 F1             
1 56370U 23060A   26073.12304294 -.00000186  00000+0  00000+0 0  9999
2 56370   0.0136 135.1378 0000586 313.7347  38.2373  1.00270656 10484
ARCTURUS                
1 56371U 23060B   26072.94104216 -.00000062  00000+0  00000+0 0  9994
2 56371   2.5298  81.1444 0001004 255.3549 246.2977  1.00271570 10506
GS-1                    
1 56372U 23060C   26073.63655611 -.00000182  00000+0  00000+0 0  9995
2 56372   2.4822  80.9448 0004790 264.3577 140.3279  1.00297675  6593
BEIDOU-3 G4             
1 56564U 23066A   26072.17398353 -.00000111  00000+0  00000+0 0  9991
2 56564   0.6336 312.1088 0002647 153.4351 287.9442  1.00272296 10433
ARABSAT-7B (BADR-8)     
1 56757U 23075A   26073.85892296  .00000144  00000+0  00000+0 0  9991
2 56757   0.0781  24.9952 0005433 332.9189 149.7575  1.00271206 10175
NVS-01 (IRNSS-1J)       
1 56759U 23076A   26073.87937639 -.00000341  00000+0  00000+0 0  9997
2 56759   2.3947 248.2496 0006839  47.6607 322.6515  1.00268930 10172
NUSANTARA TIGA (SATRIA) 
1 57045U 23086A   26072.83739124 -.00000236  00000+0  00000+0 0  9994
2 57045   0.0530 316.7031 0005347   6.5936 295.6109  1.00268920  8806
H2SAT (HEINRICH HERTZ)  
1 57213U 23093A   26072.96155966  .00000002  00000+0  00000+0 0  9999
2 57213   0.0331 282.4636 0001331 186.4971  49.4633  1.00276337  9964
SYRACUSE 4B             
1 57214U 23093B   26072.92544209 -.00000054  00000+0  00000+0 0  9996
2 57214   0.0170 157.7505 0000367 258.5559  81.9159  1.00273367  6013
JUPITER 3 (ECHOSTAR 24) 
1 57479U 23108A   26072.78831795  .00000000  00000+0  00000+0 0  9999
2 57479   0.0222 163.7370 0001105 181.6745  14.5853  1.00270014  9691
GALAXY 37 (G-37)        
1 57493U 23112A   26073.68597632  .00000000  00000+0  00000+0 0  9999
2 57493   0.0225 165.6693 0002026 198.3555 288.2281  1.00270649  9594
LUDI TANCE-4 01A        
1 57624U 23120A   26073.90406163 -.00000195  00000+0  00000+0 0  9993
2 57624  15.1677 196.3106 0004737 115.9078 275.2616  1.00266637  9606
TJS-10                  
1 58204U 23169A   26073.81297139 -.00000224  00000+0  00000+0 0  9995
2 58204   2.2994  81.6309 0010724 236.1594 249.5608  0.99760559  8594
ZHONGXING-6E            
1 58253U 23172A   26073.94793002 -.00000362  00000+0  00000+0 0  9990
2 58253   0.0323 254.4943 0002467 103.8214 271.0168  1.00271391  8717
YAOGAN-41               
1 58582U 23197A   26073.73554986 -.00000363  00000+0  00000+0 0  9996
2 58582   3.3046 311.7145 0010994 179.7220  68.9327  1.00269839  8370
OVZON-3                 
1 58698U 24003A   26073.33239127  .00000050  00000+0  00000+0 0  9996
2 58698   0.0141 164.6684 0000295 278.6131 268.0326  1.00273604  6492
INSAT-3DS               
1 58990U 24033A   26073.94134332 -.00000157  00000+0  00000+0 0  9992
2 58990   0.0278 241.4794 0002137 126.8540 225.1624  1.00271780 46121
MERAH PUTIH 2           
1 58995U 24035A   26073.84886110 -.00000359  00000+0  00000+0 0  9990
2 58995   0.0130 185.5634 0001012 197.5672 207.8651  1.00272660  7645
TJS-11                  
1 59020U 24037A   26072.76336410 -.00000367  00000+0  00000+0 0  9994
2 59020   4.3276 325.8917 0005976  51.6413 188.9982  1.00269908  7627
HULIANWAN GAOGUI-01 (H*)
1 59069U 24040A   26073.28987698  .00000155  00000+0  00000+0 0  9993
2 59069   0.0637 319.3468 0004128  50.9760 299.6082  1.00273763  6374
EUTELSAT 36D            
1 59346U 24059A   26073.93215661  .00000155  00000+0  00000+0 0  9997
2 59346   0.0137 166.6921 0000288 304.6736  72.5917  1.00271774  7207
